{
  "10001": { "code": "10001", "name": "釧路", "name_kana": "くしろ", "lat": 42.98333333, "lng": 144.3666667 },
  "10002": { "code": "10002", "name": "根室市花咲", "name_kana": "ねむろしはなさき", "lat": 43.28333333, "lng": 145.5666667 },
  "10020": { "code": "10020", "name": "根室港", "name_kana": "ねむろこう", "lat": 43.35, "lng": 145.5833333 },
  "10021": { "code": "10021", "name": "浜中町霧多布港", "name_kana": "はまなかちょうきりたっぷこう", "lat": 43.08333333, "lng": 145.1166667 },
  "10050": { "code": "10050", "name": "釧路沖１００ｋｍＡ", "name_kana": "くしろおき１００ｋｍＡ", "lat": 42.08333333, "lng": 144.6333333 },
  "10060": { "code": "10060", "name": "釧路沖８０ｋｍＡ", "name_kana": "くしろおき８０ｋｍＡ", "lat": 42.23333333, "lng": 144.85 },
  "10061": { "code": "10061", "name": "釧路沖８０ｋｍＢ", "name_kana": "くしろおき８０ｋｍＢ", "lat": 42.23333333, "lng": 145.2 },
  "10062": { "code": "10062", "name": "根室南東沖８０ｋｍＡ", "name_kana": "ねむろなんとうおき８０ｋｍＡ", "lat": 42.58333333, "lng": 146.0833333 },
  "10070": { "code": "10070", "name": "釧路沖６０ｋｍＡ", "name_kana": "くしろおき６０ｋｍＡ", "lat": 42.48333333, "lng": 145.15 },
  "10071": { "code": "10071", "name": "根室南東沖５０ｋｍＡ", "name_kana": "ねむろなんとうおき５０ｋｍＡ", "lat": 42.76666667, "lng": 145.7166667 },
  "10072": { "code": "10072", "name": "釧路沖５０ｋｍＡ", "name_kana": "くしろおき５０ｋｍＡ", "lat": 42.63333333, "lng": 145.4 },
  "10073": { "code": "10073", "name": "根室南東沖６０ｋｍＡ", "name_kana": "ねむろなんとうおき６０ｋｍＡ", "lat": 42.8, "lng": 146.0166667 },
  "10101": { "code": "10101", "name": "浦河", "name_kana": "うらかわ", "lat": 42.16666667, "lng": 142.7666667 },
  "10102": { "code": "10102", "name": "十勝港", "name_kana": "とかちこう", "lat": 42.3, "lng": 143.3166667 },
  "10103": { "code": "10103", "name": "えりも町庶野", "name_kana": "えりもちょうしょや", "lat": 42.05, "lng": 143.3 },
  "10150": { "code": "10150", "name": "十勝沖１００ｋｍＡ", "name_kana": "とかちおき１００ｋｍＡ", "lat": 41.7, "lng": 144.4333333 },
  "10151": { "code": "10151", "name": "浦河沖１００ｋｍＡ", "name_kana": "うらかわおき１００ｋｍＡ", "lat": 41.05, "lng": 143.1166667 },
  "10152": { "code": "10152", "name": "浦河沖１００ｋｍＢ", "name_kana": "うらかわおき１００ｋｍＢ", "lat": 41.08333333, "lng": 142.7666667 },
  "10153": { "code": "10153", "name": "十勝沖９０ｋｍＡ", "name_kana": "とかちおき９０ｋｍＡ", "lat": 41.98333333, "lng": 144.35 },
  "10160": { "code": "10160", "name": "十勝沖８０ｋｍＡ", "name_kana": "とかちおき８０ｋｍＡ", "lat": 41.75, "lng": 144.1833333 },
  "10161": { "code": "10161", "name": "十勝沖８０ｋｍＢ", "name_kana": "とかちおき８０ｋｍＢ", "lat": 41.5, "lng": 144.0833333 },
  "10162": { "code": "10162", "name": "十勝沖８０ｋｍＣ", "name_kana": "とかちおき８０ｋｍＣ", "lat": 41.36666667, "lng": 143.8 },
  "10163": { "code": "10163", "name": "浦河沖７０ｋｍＡ", "name_kana": "うらかわおき７０ｋｍＡ", "lat": 41.61666667, "lng": 142.4833333 },
  "10170": { "code": "10170", "name": "十勝沖６０ｋｍＡ", "name_kana": "とかちおき６０ｋｍＡ", "lat": 41.36666667, "lng": 143.45 },
  "10171": { "code": "10171", "name": "浦河沖６０ｋｍＡ", "name_kana": "うらかわおき６０ｋｍＡ", "lat": 41.43333333, "lng": 143.1333333 },
  "10172": { "code": "10172", "name": "浦河沖５０ｋｍＡ", "name_kana": "うらかわおき５０ｋｍＡ", "lat": 41.56666667, "lng": 142.8166667 },
  "10202": { "code": "10202", "name": "函館", "name_kana": "はこだて", "lat": 41.78333333, "lng": 140.7166667 },
  "10203": { "code": "10203", "name": "苫小牧西港", "name_kana": "とまこまいにしこう", "lat": 42.63333333, "lng": 141.6166667 },
  "10204": { "code": "10204", "name": "福島町吉岡", "name_kana": "ふくしまちょうよしおか", "lat": 41.45, "lng": 140.2333333 },
  "10221": { "code": "10221", "name": "苫小牧東港", "name_kana": "とまこまいひがしこう", "lat": 42.6, "lng": 141.8166667 },
  "10222": { "code": "10222", "name": "白老港", "name_kana": "しらおいこう", "lat": 42.51666667, "lng": 141.3166667 },
  "10223": { "code": "10223", "name": "渡島森港", "name_kana": "おしまもりこう", "lat": 42.11666667, "lng": 140.6 },
  "10224": { "code": "10224", "name": "室蘭港", "name_kana": "むろらんこう", "lat": 42.35, "lng": 140.95 },
  "11001": { "code": "11001", "name": "稚内", "name_kana": "わっかない", "lat": 45.4, "lng": 141.6833333 },
  "11002": { "code": "11002", "name": "留萌", "name_kana": "るもい", "lat": 43.95, "lng": 141.6333333 },
  "11003": { "code": "11003", "name": "小樽", "name_kana": "おたる", "lat": 43.2, "lng": 141 },
  "11022": { "code": "11022", "name": "石狩湾新港", "name_kana": "いしかりわんしんこう", "lat": 43.21666667, "lng": 141.3 },
  "11023": { "code": "11023", "name": "利尻島沓形港", "name_kana": "りしりとうくつがたこう", "lat": 45.18333333, "lng": 141.1333333 },
  "11024": { "code": "11024", "name": "羽幌港", "name_kana": "はぼろこう", "lat": 44.36666667, "lng": 141.7 },
  "11030": { "code": "11030", "name": "小樽市忍路", "name_kana": "おたるしおしょろ", "lat": 43.21666667, "lng": 140.8666667 },
  "11101": { "code": "11101", "name": "寿都", "name_kana": "すっつ", "lat": 42.78333333, "lng": 140.26666666 },
  "11102": { "code": "11102", "name": "江差", "name_kana": "えさし", "lat": 41.86666667, "lng": 140.1333333 },
  "11121": { "code": "11121", "name": "瀬棚港", "name_kana": "せたなこう", "lat": 42.45, "lng": 139.85 },
  "11122": { "code": "11122", "name": "岩内港", "name_kana": "いわないこう", "lat": 42.98333333, "lng": 140.5 },
  "11123": { "code": "11123", "name": "奥尻島奥尻港", "name_kana": "おくしりとうおくしりこう", "lat": 42.16666667, "lng": 139.5166667 },
  "11130": { "code": "11130", "name": "奥尻島松江", "name_kana": "おくしりとうまつえ", "lat": 42.08333333, "lng": 139.4833333 },
  "12001": { "code": "12001", "name": "網走", "name_kana": "あばしり", "lat": 44.01666667, "lng": 144.2833333 },
  "12003": { "code": "12003", "name": "枝幸港", "name_kana": "えさしこう", "lat": 44.93333333, "lng": 142.5833333 },
  "12020": { "code": "12020", "name": "紋別港", "name_kana": "もんべつこう", "lat": 44.35, "lng": 143.3666667 },
  "20001": { "code": "20001", "name": "深浦", "name_kana": "ふかうら", "lat": 40.65, "lng": 139.9333333 },
  "20002": { "code": "20002", "name": "竜飛", "name_kana": "たっぴ", "lat": 41.25, "lng": 140.3833333 },
  "20090": { "code": "20090", "name": "青森深浦沖", "name_kana": "あおもりふかうらおき", "lat": 40.78333333, "lng": 139.9333333 },
  "20102": { "code": "20102", "name": "むつ市関根浜", "name_kana": "むつしせきねはま", "lat": 41.36666667, "lng": 141.2333333 },
  "20120": { "code": "20120", "name": "むつ小川原港", "name_kana": "むつおがわらこう", "lat": 40.93333333, "lng": 141.3833333 },
  "20121": { "code": "20121", "name": "八戸港", "name_kana": "はちのへこう", "lat": 40.53333333, "lng": 141.55 },
  "20150": { "code": "20150", "name": "青森東方沖１００ｋｍＡ", "name_kana": "あおもりとうほうおき１００ｋｍＡ", "lat": 40.51666667, "lng": 142.9666667 },
  "20151": { "code": "20151", "name": "青森東方沖９０ｋｍＡ", "name_kana": "あおもりとうほうおき９０ｋｍＡ", "lat": 41.01666667, "lng": 142.4333333 },
  "20160": { "code": "20160", "name": "青森東方沖８０ｋｍＡ", "name_kana": "あおもりとうほうおき８０ｋｍＡ", "lat": 40.6, "lng": 142.6333333 },
  "20170": { "code": "20170", "name": "青森東方沖６０ｋｍＡ", "name_kana": "あおもりとうほうおき６０ｋｍＡ", "lat": 41.41666667, "lng": 142.2166667 },
  "20171": { "code": "20171", "name": "青森東方沖６０ｋｍＢ", "name_kana": "あおもりとうほうおき６０ｋｍＢ", "lat": 40.9, "lng": 142.1 },
  "20172": { "code": "20172", "name": "青森東方沖５０ｋｍＡ", "name_kana": "あおもりとうほうおき５０ｋｍＡ", "lat": 41.2, "lng": 142.0333333 },
  "20173": { "code": "20173", "name": "青森東方沖５０ｋｍＢ", "name_kana": "あおもりとうほうおき５０ｋｍＢ", "lat": 40.6, "lng": 142.2833333 },
  "20180": { "code": "20180", "name": "青森東方沖４０ｋｍＡ", "name_kana": "あおもりとうほうおき４０ｋｍＡ", "lat": 40.95, "lng": 141.8833333 },
  "20181": { "code": "20181", "name": "青森東方沖３０ｋｍＡ", "name_kana": "あおもりとうほうおき３０ｋｍＡ", "lat": 40.78333333, "lng": 141.7833333 },
  "20190": { "code": "20190", "name": "青森八戸沖", "name_kana": "あおもりはちのへおき", "lat": 40.63333333, "lng": 141.75 },
  "20201": { "code": "20201", "name": "青森", "name_kana": "あおもり", "lat": 40.83333333, "lng": 140.7666667 },
  "20202": { "code": "20202", "name": "むつ市大湊", "name_kana": "むつしおおみなと", "lat": 41.25, "lng": 141.15 },
  "21001": { "code": "21001", "name": "宮古", "name_kana": "みやこ", "lat": 39.65, "lng": 141.9833333 },
  "21002": { "code": "21002", "name": "大船渡", "name_kana": "おおふなと", "lat": 39.01666667, "lng": 141.75 },
  "21003": { "code": "21003", "name": "釜石", "name_kana": "かまいし", "lat": 39.26666667, "lng": 141.8833333 },
  "21020": { "code": "21020", "name": "久慈港", "name_kana": "くじこう", "lat": 40.2, "lng": 141.8 },
  "21050": { "code": "21050", "name": "岩手沖９０ｋｍＡ", "name_kana": "いわておき９０ｋｍＡ", "lat": 40.08333333, "lng": 142.9666667 },
  "21051": { "code": "21051", "name": "岩手沖９０ｋｍＢ", "name_kana": "いわておき９０ｋｍＢ", "lat": 39.31666667, "lng": 143.1166667 },
  "21060": { "code": "21060", "name": "岩手沖７０ｋｍＡ", "name_kana": "いわておき７０ｋｍＡ", "lat": 39.23333333, "lng": 142.7666667 },
  "21061": { "code": "21061", "name": "岩手沖８０ｋｍＡ", "name_kana": "いわておき８０ｋｍＡ", "lat": 39.71666667, "lng": 143.0333333 },
  "21070": { "code": "21070", "name": "岩手沖６０ｋｍＡ", "name_kana": "いわておき６０ｋｍＡ", "lat": 40.11666667, "lng": 142.6166667 },
  "21071": { "code": "21071", "name": "岩手沖６０ｋｍＢ", "name_kana": "いわておき６０ｋｍＢ", "lat": 39.75, "lng": 142.6833333 },
  "21072": { "code": "21072", "name": "岩手沖６０ｋｍＣ", "name_kana": "いわておき６０ｋｍＣ", "lat": 39.36666667, "lng": 142.8 },
  "21080": { "code": "21080", "name": "岩手沖４０ｋｍＡ", "name_kana": "いわておき４０ｋｍＡ", "lat": 39.25, "lng": 142.4333333 },
  "21081": { "code": "21081", "name": "岩手沖４０ｋｍＢ", "name_kana": "いわておき４０ｋｍＢ", "lat": 40.33333333, "lng": 142.2666667 },
  "21082": { "code": "21082", "name": "岩手沖４０ｋｍＣ", "name_kana": "いわておき４０ｋｍＣ", "lat": 40.11666667, "lng": 142.4 },
  "21083": { "code": "21083", "name": "岩手沖３０ｋｍＡ", "name_kana": "いわておき３０ｋｍＡ", "lat": 39.73333333, "lng": 142.3333333 },
  "21084": { "code": "21084", "name": "岩手沖３０ｋｍＢ", "name_kana": "いわておき３０ｋｍＢ", "lat": 39.45, "lng": 142.45 },
  "21090": { "code": "21090", "name": "岩手釜石沖", "name_kana": "いわてかまいしおき", "lat": 39.26666667, "lng": 142.1 },
  "21091": { "code": "21091", "name": "岩手宮古沖", "name_kana": "いわてみやこおき", "lat": 39.63333333, "lng": 142.1833333 },
  "21092": { "code": "21092", "name": "岩手久慈沖", "name_kana": "いわてくじおき", "lat": 40.11666667, "lng": 142.0666667 },
  "22002": { "code": "22002", "name": "石巻市鮎川", "name_kana": "いしのまきしあゆかわ", "lat": 38.3, "lng": 141.5 },
  "22021": { "code": "22021", "name": "仙台港", "name_kana": "せんだいこう", "lat": 38.26666667, "lng": 141 },
  "22022": { "code": "22022", "name": "石巻港", "name_kana": "いしのまきこう", "lat": 38.4, "lng": 141.2666667 },
  "22050": { "code": "22050", "name": "宮城沖９０ｋｍＡ", "name_kana": "みやぎおき９０ｋｍＡ", "lat": 38.03333333, "lng": 142.5666667 },
  "22060": { "code": "22060", "name": "宮城沖８０ｋｍＡ", "name_kana": "みやぎおき８０ｋｍＡ", "lat": 38.86666667, "lng": 142.8166667 },
  "22061": { "code": "22061", "name": "宮城沖８０ｋｍＢ", "name_kana": "みやぎおき８０ｋｍＢ", "lat": 38.5, "lng": 142.5 },
  "22070": { "code": "22070", "name": "宮城沖６０ｋｍＡ", "name_kana": "みやぎおき６０ｋｍＡ", "lat": 38.05, "lng": 142.2333333 },
  "22071": { "code": "22071", "name": "宮城沖５０ｋｍＡ", "name_kana": "みやぎおき５０ｋｍＡ", "lat": 38.93333333, "lng": 142.4833333 },
  "22072": { "code": "22072", "name": "宮城沖５０ｋｍＢ", "name_kana": "みやぎおき５０ｋｍＢ", "lat": 38.58333333, "lng": 142.1833333 },
  "22080": { "code": "22080", "name": "宮城沖４０ｋｍＡ", "name_kana": "みやぎおき４０ｋｍＡ", "lat": 38.83333333, "lng": 142.1833333 },
  "22081": { "code": "22081", "name": "宮城沖３０ｋｍＡ", "name_kana": "みやぎおき３０ｋｍＡ", "lat": 38.1, "lng": 141.9 },
  "22090": { "code": "22090", "name": "宮城金華山沖", "name_kana": "みやぎきんかさんおき", "lat": 38.23333333, "lng": 141.6833333 },
  "22091": { "code": "22091", "name": "気仙沼広田湾沖", "name_kana": "けせんぬまひろたわんおき", "lat": 38.85, "lng": 141.9 },
  "22095": { "code": "22095", "name": "宮城牡鹿沖", "name_kana": "みやぎおしかおき", "lat": 38.1, "lng": 141.55 },
  "23001": { "code": "23001", "name": "秋田", "name_kana": "あきた", "lat": 39.75, "lng": 140.0666667 },
  "23090": { "code": "23090", "name": "秋田男鹿沖", "name_kana": "あきたおがおき", "lat": 40.21666667, "lng": 139.6666667 },
  "24001": { "code": "24001", "name": "酒田", "name_kana": "さかた", "lat": 38.91666667, "lng": 139.8166667 },
  "24030": { "code": "24030", "name": "飛島", "name_kana": "とびしま", "lat": 39.18333333, "lng": 139.55 },
  "24031": { "code": "24031", "name": "鶴岡市鼠ケ関", "name_kana": "つるおかしねずがせき", "lat": 38.56666667, "lng": 139.55 },
  "24090": { "code": "24090", "name": "山形酒田沖", "name_kana": "やまがたさかたおき", "lat": 38.96666667, "lng": 139.6 },
  "25002": { "code": "25002", "name": "いわき市小名浜", "name_kana": "いわきしおなはま", "lat": 36.93333333, "lng": 140.9 },
  "25030": { "code": "25030", "name": "相馬", "name_kana": "そうま", "lat": 37.83333333, "lng": 140.9666667 },
  "25050": { "code": "25050", "name": "福島沖９０ｋｍＡ", "name_kana": "ふくしまおき９０ｋｍＡ", "lat": 37.66666667, "lng": 142.3 },
  "25060": { "code": "25060", "name": "福島沖７０ｋｍＡ", "name_kana": "ふくしまおき７０ｋｍＡ", "lat": 37.7, "lng": 141.9666667 },
  "25061": { "code": "25061", "name": "福島沖７０ｋｍＢ", "name_kana": "ふくしまおき７０ｋｍＢ", "lat": 37.28333333, "lng": 141.8833333 },
  "25070": { "code": "25070", "name": "福島沖５０ｋｍＡ", "name_kana": "ふくしまおき５０ｋｍＡ", "lat": 37.7, "lng": 141.6333333 },
  "25071": { "code": "25071", "name": "福島沖５０ｋｍＢ", "name_kana": "ふくしまおき５０ｋｍＢ", "lat": 37.3, "lng": 141.5666667 },
  "25080": { "code": "25080", "name": "福島沖３０ｋｍＡ", "name_kana": "ふくしまおき３０ｋｍＡ", "lat": 37.85, "lng": 141.3833333 },
  "25081": { "code": "25081", "name": "福島沖３０ｋｍＢ", "name_kana": "ふくしまおき３０ｋｍＢ", "lat": 37.1, "lng": 141.3666667 },
  "25090": { "code": "25090", "name": "福島小名浜沖", "name_kana": "ふくしまおなはまおき", "lat": 36.96666667, "lng": 141.1833333 },
  "30001": { "code": "30001", "name": "大洗", "name_kana": "おおあらい", "lat": 36.3, "lng": 140.5666667 },
  "30020": { "code": "30020", "name": "神栖市鹿島港", "name_kana": "かみすしかしまこう", "lat": 35.93333333, "lng": 140.7 },
  "30050": { "code": "30050", "name": "茨城沖９０ｋｍＡ", "name_kana": "いばらきおき９０ｋｍＡ", "lat": 36.63333333, "lng": 141.8333333 },
  "30051": { "code": "30051", "name": "茨城沖９０ｋｍＢ", "name_kana": "いばらきおき９０ｋｍＢ", "lat": 36, "lng": 141.8 },
  "30060": { "code": "30060", "name": "茨城沖７０ｋｍＡ", "name_kana": "いばらきおき７０ｋｍＡ", "lat": 36.06666667, "lng": 141.5166667 },
  "30070": { "code": "30070", "name": "茨城沖６０ｋｍＡ", "name_kana": "いばらきおき６０ｋｍＡ", "lat": 36.66666667, "lng": 141.5166667 },
  "30071": { "code": "30071", "name": "茨城沖５０ｋｍＡ", "name_kana": "いばらきおき５０ｋｍＡ", "lat": 36.15, "lng": 141.2 },
  "30072": { "code": "30072", "name": "茨城沖５０ｋｍＢ", "name_kana": "いばらきおき５０ｋｍＢ", "lat": 35.85, "lng": 141.3833333 },
  "30080": { "code": "30080", "name": "茨城沖４０ｋｍＡ", "name_kana": "いばらきおき４０ｋｍＡ", "lat": 36.83333333, "lng": 141.3333333 },
  "30095": { "code": "30095", "name": "茨城神栖沖", "name_kana": "いばらきかみすおき", "lat": 35.9, "lng": 141.05 },
  "31001": { "code": "31001", "name": "銚子", "name_kana": "ちょうし", "lat": 35.75, "lng": 140.8666667 },
  "31002": { "code": "31002", "name": "勝浦市興津", "name_kana": "かつうらしおきつ", "lat": 35.13333333, "lng": 140.25 },
  "31050": { "code": "31050", "name": "千葉東方沖９０ｋｍＡ", "name_kana": "ちばとうほうおき９０ｋｍＡ", "lat": 35.6, "lng": 141.9 },
  "31051": { "code": "31051", "name": "千葉南東沖９０ｋｍＡ", "name_kana": "ちばなんとうおき９０ｋｍＡ", "lat": 34.63333333, "lng": 141.0833333 },
  "31060": { "code": "31060", "name": "千葉東方沖８０ｋｍＡ", "name_kana": "ちばとうほうおき８０ｋｍＡ", "lat": 35.28333333, "lng": 141.5833333 },
  "31061": { "code": "31061", "name": "千葉南東沖８０ｋｍＡ", "name_kana": "ちばなんとうおき８０ｋｍＡ", "lat": 34.26666667, "lng": 140.4166667 },
  "31062": { "code": "31062", "name": "千葉東方沖７０ｋｍＡ", "name_kana": "ちばとうほうおき７０ｋｍＡ", "lat": 35.71666667, "lng": 141.65 },
  "31063": { "code": "31063", "name": "千葉東方沖７０ｋｍＢ", "name_kana": "ちばとうほうおき７０ｋｍＢ", "lat": 35.1, "lng": 141.2 },
  "31064": { "code": "31064", "name": "千葉南東沖８０ｋｍＢ", "name_kana": "ちばなんとうおき８０ｋｍＢ", "lat": 34.18333333, "lng": 139.9833333 },
  "31070": { "code": "31070", "name": "千葉南東沖６０ｋｍＡ", "name_kana": "ちばなんとうおき６０ｋｍＡ", "lat": 34.75, "lng": 140.75 },
  "31071": { "code": "31071", "name": "千葉東方沖６０ｋｍＡ", "name_kana": "ちばとうほうおき６０ｋｍＡ", "lat": 35.23333333, "lng": 141.3 },
  "31072": { "code": "31072", "name": "千葉東方沖６０ｋｍＢ", "name_kana": "ちばとうほうおき６０ｋｍＢ", "lat": 34.88333333, "lng": 140.9666667 },
  "31073": { "code": "31073", "name": "千葉南東沖６０ｋｍＢ", "name_kana": "ちばなんとうおき６０ｋｍＢ", "lat": 34.41666667, "lng": 140.2 },
  "31074": { "code": "31074", "name": "千葉東方沖５０ｋｍＡ", "name_kana": "ちばとうほうおき５０ｋｍＡ", "lat": 35.45, "lng": 141.3833333 },
  "31075": { "code": "31075", "name": "千葉東方沖５０ｋｍＢ", "name_kana": "ちばとうほうおき５０ｋｍＢ", "lat": 35.11666667, "lng": 140.9666667 },
  "31080": { "code": "31080", "name": "千葉南東沖４０ｋｍＡ", "name_kana": "ちばなんとうおき４０ｋｍＡ", "lat": 34.8, "lng": 140.5166667 },
  "31081": { "code": "31081", "name": "千葉南東沖３０ｋｍＡ", "name_kana": "ちばなんとうおき３０ｋｍＡ", "lat": 34.6, "lng": 139.9166667 },
  "31082": { "code": "31082", "name": "千葉東方沖４０ｋｍＡ", "name_kana": "ちばとうほうおき４０ｋｍＡ", "lat": 35.01666667, "lng": 140.8166667 },
  "31083": { "code": "31083", "name": "千葉南東沖３０ｋｍＢ", "name_kana": "ちばなんとうおき３０ｋｍＢ", "lat": 34.65, "lng": 140.0833333 },
  "31084": { "code": "31084", "name": "千葉南東沖３０ｋｍＣ", "name_kana": "ちばなんとうおき３０ｋｍＣ", "lat": 34.66666667, "lng": 139.8166667 },
  "31101": { "code": "31101", "name": "館山市布良", "name_kana": "たてやましめら", "lat": 34.91666667, "lng": 139.8333333 },
  "31202": { "code": "31202", "name": "東京晴海", "name_kana": "とうきょうはるみ", "lat": 35.65, "lng": 139.7666667 },
  "31204": { "code": "31204", "name": "横須賀", "name_kana": "よこすか", "lat": 35.28333333, "lng": 139.65 },
  "31205": { "code": "31205", "name": "千葉", "name_kana": "ちば", "lat": 35.56666667, "lng": 140.05 },
  "31206": { "code": "31206", "name": "横浜", "name_kana": "よこはま", "lat": 35.45, "lng": 139.65 },
  "32001": { "code": "32001", "name": "伊豆大島岡田", "name_kana": "いずおおしまおかだ", "lat": 34.78333333, "lng": 139.3833333 },
  "32002": { "code": "32002", "name": "三宅島坪田", "name_kana": "みやけじまつぼた", "lat": 34.05, "lng": 139.55 },
  "32003": { "code": "32003", "name": "八丈島八重根", "name_kana": "はちじょうじまやえね", "lat": 33.1, "lng": 139.7833333 },
  "32004": { "code": "32004", "name": "神津島神津島港", "name_kana": "こうづしまこうづしまこう", "lat": 34.21666667, "lng": 139.1333333 },
  "32005": { "code": "32005", "name": "三宅島阿古", "name_kana": "みやけじまあこ", "lat": 34.06666667, "lng": 139.4833333 },
  "32006": { "code": "32006", "name": "八丈島神湊", "name_kana": "はちじょうじまかみなと", "lat": 33.13333333, "lng": 139.8 },
  "32101": { "code": "32101", "name": "父島二見", "name_kana": "ちちじまふたみ", "lat": 27.1, "lng": 142.2 },
  "32102": { "code": "32102", "name": "南鳥島", "name_kana": "みなみとりしま", "lat": 24.28333333, "lng": 153.9833333 },
  "33000": { "code": "33000", "name": "小田原", "name_kana": "おだわら", "lat": 35.23333333, "lng": 139.15 },
  "33001": { "code": "33001", "name": "三浦市三崎漁港", "name_kana": "みうらしみさきぎょこう", "lat": 35.13333333, "lng": 139.6166667 },
  "33030": { "code": "33030", "name": "三浦市油壺", "name_kana": "みうらしあぶらつぼ", "lat": 35.16666667, "lng": 139.6166667 },
  "33080": { "code": "33080", "name": "神奈川沖４０ｋｍ", "name_kana": "かながわおき４０ｋｍ", "lat": 34.8, "lng": 139.6 },
  "33095": { "code": "33095", "name": "神奈川相模湾沖", "name_kana": "かながわさがみわんおき", "lat": 35.06666667, "lng": 139.4 },
  "34001": { "code": "34001", "name": "新潟", "name_kana": "にいがた", "lat": 37.93333333, "lng": 139.0666667 },
  "34003": { "code": "34003", "name": "粟島", "name_kana": "あわしま", "lat": 38.46666667, "lng": 139.25 },
  "34004": { "code": "34004", "name": "上越市直江津", "name_kana": "じょうえつしなおえつ", "lat": 37.18333333, "lng": 138.25 },
  "34030": { "code": "34030", "name": "柏崎市鯨波", "name_kana": "かしわざきしくじらなみ", "lat": 37.35, "lng": 138.5166667 },
  "34103": { "code": "34103", "name": "佐渡市鷲崎", "name_kana": "さどしわしざき", "lat": 38.31666667, "lng": 138.5166667 },
  "34104": { "code": "34104", "name": "佐渡市小木", "name_kana": "さどしおぎ", "lat": 37.81666666, "lng": 138.28333333 },
  "35001": { "code": "35001", "name": "富山", "name_kana": "とやま", "lat": 36.76666667, "lng": 137.2166667 },
  "35021": { "code": "35021", "name": "伏木富山港新湊", "name_kana": "ふしきとやまこうしんみなと", "lat": 36.78333333, "lng": 137.1166667 },
  "36001": { "code": "36001", "name": "珠洲市長橋", "name_kana": "すずしながはし", "lat": 37.5, "lng": 137.15 },
  "36002": { "code": "36002", "name": "珠洲市飯田", "name_kana": "すずしいいだ", "lat": 37.43333333, "lng": 137.26666666 },
  "36020": { "code": "36020", "name": "輪島港", "name_kana": "わじまこう", "lat": 37.4, "lng": 136.9 },
  "36021": { "code": "36021", "name": "七尾港", "name_kana": "ななおこう", "lat": 37.05, "lng": 136.9666667 },
  "36101": { "code": "36101", "name": "金沢", "name_kana": "かなざわ", "lat": 36.61666667, "lng": 136.6 },
  "37003": { "code": "37003", "name": "坂井市三国", "name_kana": "さかいしみくに", "lat": 36.25, "lng": 136.15 },
  "37020": { "code": "37020", "name": "敦賀港", "name_kana": "つるがこう", "lat": 35.66666667, "lng": 136.0666667 },
  "38001": { "code": "38001", "name": "沼津市内浦", "name_kana": "ぬまづしうちうら", "lat": 35.01666667, "lng": 138.8833333 },
  "38002": { "code": "38002", "name": "清水", "name_kana": "しみず", "lat": 35.01666667, "lng": 138.5166667 },
  "38005": { "code": "38005", "name": "御前崎", "name_kana": "おまえざき", "lat": 34.61666667, "lng": 138.2166667 },
  "38006": { "code": "38006", "name": "舞阪", "name_kana": "まいさか", "lat": 34.68333333, "lng": 137.6166667 },
  "38007": { "code": "38007", "name": "南伊豆町手石港", "name_kana": "みなみいずちょうていしこう", "lat": 34.63333333, "lng": 138.88333333 },
  "38020": { "code": "38020", "name": "下田港", "name_kana": "しもだこう", "lat": 34.68333333, "lng": 138.9666667 },
  "38030": { "code": "38030", "name": "伊東", "name_kana": "いとう", "lat": 34.9, "lng": 139.1333333 },
  "38031": { "code": "38031", "name": "西伊豆町田子", "name_kana": "にしいずちょうたご", "lat": 34.8, "lng": 138.7666667 },
  "38032": { "code": "38032", "name": "焼津", "name_kana": "やいづ", "lat": 34.86666667, "lng": 138.3333333 },
  "38070": { "code": "38070", "name": "静岡沖５０ｋｍ", "name_kana": "しずおかおき５０ｋｍ", "lat": 34.21666667, "lng": 137.7 },
  "38090": { "code": "38090", "name": "静岡御前崎沖", "name_kana": "しずおかおまえざきおき", "lat": 34.4, "lng": 138.2833333 },
  "39001": { "code": "39001", "name": "田原市赤羽根", "name_kana": "たはらしあかばね", "lat": 34.6, "lng": 137.1833333 },
  "39090": { "code": "39090", "name": "伊勢湾口沖", "name_kana": "いせわんこうおき", "lat": 34.36666667, "lng": 137.1166667 },
  "39101": { "code": "39101", "name": "名古屋", "name_kana": "なごや", "lat": 35.08333333, "lng": 136.8833333 },
  "39102": { "code": "39102", "name": "半田市衣浦", "name_kana": "はんだしきぬうら", "lat": 34.88333333, "lng": 136.95 },
  "39103": { "code": "39103", "name": "四日市", "name_kana": "よっかいち", "lat": 34.96666667, "lng": 136.6333333 },
  "39120": { "code": "39120", "name": "豊橋市三河港", "name_kana": "とよはししみかわこう", "lat": 34.73333333, "lng": 137.3166667 },
  "40001": { "code": "40001", "name": "鳥羽", "name_kana": "とば", "lat": 34.48333333, "lng": 136.8166667 },
  "40002": { "code": "40002", "name": "尾鷲", "name_kana": "おわせ", "lat": 34.08333333, "lng": 136.2 },
  "40003": { "code": "40003", "name": "熊野市遊木", "name_kana": "くまのしゆき", "lat": 33.93333333, "lng": 136.1666667 },
  "40050": { "code": "40050", "name": "三重南東沖９０ｋｍＡ", "name_kana": "みえなんとうおき９０ｋｍＡ", "lat": 33.36666667, "lng": 136.9166667 },
  "40060": { "code": "40060", "name": "三重南東沖８０ｋｍＡ", "name_kana": "みえなんとうおき８０ｋｍＡ", "lat": 33.76666667, "lng": 137.5833333 },
  "40061": { "code": "40061", "name": "三重南東沖８０ｋｍＢ", "name_kana": "みえなんとうおき８０ｋｍＢ", "lat": 33.48333333, "lng": 136.9333333 },
  "40062": { "code": "40062", "name": "三重南東沖８０ｋｍＣ", "name_kana": "みえなんとうおき８０ｋｍＣ", "lat": 33.36666667, "lng": 136.8 },
  "40063": { "code": "40063", "name": "三重南東沖７０ｋｍＡ", "name_kana": "みえなんとうおき７０ｋｍＡ", "lat": 33.46666667, "lng": 136.8 },
  "40070": { "code": "40070", "name": "三重南東沖６０ｋｍＡ", "name_kana": "みえなんとうおき６０ｋｍＡ", "lat": 33.85, "lng": 137.3666667 },
  "40071": { "code": "40071", "name": "三重南東沖６０ｋｍＢ", "name_kana": "みえなんとうおき６０ｋｍＢ", "lat": 33.65, "lng": 136.8333333 },
  "40072": { "code": "40072", "name": "三重南東沖５０ｋｍＡ", "name_kana": "みえなんとうおき５０ｋｍＡ", "lat": 33.65, "lng": 136.6 },
  "40080": { "code": "40080", "name": "三重南東沖４０ｋｍＡ", "name_kana": "みえなんとうおき４０ｋｍＡ", "lat": 33.75, "lng": 136.65 },
  "40081": { "code": "40081", "name": "三重南東沖４０ｋｍＢ", "name_kana": "みえなんとうおき４０ｋｍＢ", "lat": 33.68333333, "lng": 136.4666667 },
  "40082": { "code": "40082", "name": "三重南東沖３０ｋｍＡ", "name_kana": "みえなんとうおき３０ｋｍＡ", "lat": 33.8, "lng": 136.55 },
  "40090": { "code": "40090", "name": "三重尾鷲沖", "name_kana": "みえおわせおき", "lat": 33.9, "lng": 136.2666667 },
  "50001": { "code": "50001", "name": "舞鶴", "name_kana": "まいづる", "lat": 35.48333333, "lng": 135.3833333 },
  "51001": { "code": "51001", "name": "大阪天保山", "name_kana": "おおさかてんぽうざん", "lat": 34.65, "lng": 135.4333333 },
  "51002": { "code": "51002", "name": "岬町淡輪", "name_kana": "みさきちょうたんのわ", "lat": 34.33333333, "lng": 135.1833333 },
  "52001": { "code": "52001", "name": "豊岡市津居山", "name_kana": "とよおかしついやま", "lat": 35.65, "lng": 134.8333333 },
  "52101": { "code": "52101", "name": "神戸", "name_kana": "こうべ", "lat": 34.68333333, "lng": 135.1833333 },
  "52102": { "code": "52102", "name": "姫路", "name_kana": "ひめじ", "lat": 34.78333333, "lng": 134.6666667 },
  "52202": { "code": "52202", "name": "洲本", "name_kana": "すもと", "lat": 34.35, "lng": 134.9 },
  "53001": { "code": "53001", "name": "那智勝浦町浦神", "name_kana": "なちかつうらちょううらがみ", "lat": 33.56666667, "lng": 135.9 },
  "53002": { "code": "53002", "name": "串本町袋港", "name_kana": "くしもとちょうふくろこう", "lat": 33.48333333, "lng": 135.7666667 },
  "53004": { "code": "53004", "name": "和歌山", "name_kana": "わかやま", "lat": 34.21666667, "lng": 135.15 },
  "53006": { "code": "53006", "name": "御坊市祓井戸", "name_kana": "ごぼうしはらいど", "lat": 33.85, "lng": 135.1666667 },
  "53007": { "code": "53007", "name": "白浜町堅田", "name_kana": "しらはまちょうかたた", "lat": 33.68333333, "lng": 135.3833333 },
  "53060": { "code": "53060", "name": "和歌山沖８０ｋｍＡ", "name_kana": "わかやまおき８０ｋｍＡ", "lat": 33.21666667, "lng": 136.6833333 },
  "53061": { "code": "53061", "name": "和歌山沖８０ｋｍＢ", "name_kana": "わかやまおき８０ｋｍＢ", "lat": 33.16666667, "lng": 136.5833333 },
  "53062": { "code": "53062", "name": "和歌山沖７０ｋｍＡ", "name_kana": "わかやまおき７０ｋｍＡ", "lat": 33.3, "lng": 136.6 },
  "53063": { "code": "53063", "name": "和歌山沖７０ｋｍＢ", "name_kana": "わかやまおき７０ｋｍＢ", "lat": 33.23333333, "lng": 136.5666667 },
  "53064": { "code": "53064", "name": "和歌山沖８０ｋｍＣ", "name_kana": "わかやまおき８０ｋｍＣ", "lat": 32.88333333, "lng": 135.3 },
  "53065": { "code": "53065", "name": "和歌山沖８０ｋｍＤ", "name_kana": "わかやまおき８０ｋｍＤ", "lat": 32.85, "lng": 135.1833333 },
  "53066": { "code": "53066", "name": "和歌山沖８０ｋｍＥ", "name_kana": "わかやまおき８０ｋｍＥ", "lat": 32.9, "lng": 135.15 },
  "53067": { "code": "53067", "name": "和歌山沖７０ｋｍＣ", "name_kana": "わかやまおき７０ｋｍＣ", "lat": 32.8, "lng": 135.7666667 },
  "53068": { "code": "53068", "name": "和歌山沖７０ｋｍＤ", "name_kana": "わかやまおき７０ｋｍＤ", "lat": 32.86666667, "lng": 135.6666667 },
  "53069": { "code": "53069", "name": "和歌山沖７０ｋｍＥ", "name_kana": "わかやまおき７０ｋｍＥ", "lat": 32.98333333, "lng": 135.2333333 },
  "53070": { "code": "53070", "name": "和歌山沖５０ｋｍＡ", "name_kana": "わかやまおき５０ｋｍＡ", "lat": 33.48333333, "lng": 136.45 },
  "53071": { "code": "53071", "name": "和歌山沖５０ｋｍＢ", "name_kana": "わかやまおき５０ｋｍＢ", "lat": 33.38333333, "lng": 136.3833333 },
  "53072": { "code": "53072", "name": "和歌山沖６０ｋｍＡ", "name_kana": "わかやまおき６０ｋｍＡ", "lat": 32.9, "lng": 135.8333333 },
  "53073": { "code": "53073", "name": "和歌山沖６０ｋｍＢ", "name_kana": "わかやまおき６０ｋｍＢ", "lat": 32.93333333, "lng": 135.7666667 },
  "53074": { "code": "53074", "name": "和歌山沖６０ｋｍＣ", "name_kana": "わかやまおき６０ｋｍＣ", "lat": 33.18333333, "lng": 135.1 },
  "53075": { "code": "53075", "name": "和歌山沖５０ｋｍＣ", "name_kana": "わかやまおき５０ｋｍＣ", "lat": 33.03333333, "lng": 135.8333333 },
  "53076": { "code": "53076", "name": "和歌山沖５０ｋｍＤ", "name_kana": "わかやまおき５０ｋｍＤ", "lat": 33.08333333, "lng": 135.4166667 },
  "53077": { "code": "53077", "name": "和歌山沖５０ｋｍＥ", "name_kana": "わかやまおき５０ｋｍＥ", "lat": 33.23333333, "lng": 135.1666667 },
  "53078": { "code": "53078", "name": "和歌山沖５０ｋｍＦ", "name_kana": "わかやまおき５０ｋｍＦ", "lat": 33.28333333, "lng": 134.9833333 },
  "53079": { "code": "53079", "name": "和歌山沖４０ｋｍＡ", "name_kana": "わかやまおき４０ｋｍＡ", "lat": 33.33333333, "lng": 136.2666667 },
  "53080": { "code": "53080", "name": "和歌山沖３０ｋｍＡ", "name_kana": "わかやまおき３０ｋｍＡ", "lat": 33.55, "lng": 136.3333333 },
  "53081": { "code": "53081", "name": "和歌山沖３０ｋｍＢ", "name_kana": "わかやまおき３０ｋｍＢ", "lat": 33.45, "lng": 136.25 },
  "53082": { "code": "53082", "name": "和歌山沖４０ｋｍＢ", "name_kana": "わかやまおき４０ｋｍＢ", "lat": 33.15, "lng": 135.9666667 },
  "53083": { "code": "53083", "name": "和歌山沖４０ｋｍＣ", "name_kana": "わかやまおき４０ｋｍＣ", "lat": 33.13333333, "lng": 135.8666667 },
  "53084": { "code": "53084", "name": "和歌山沖４０ｋｍＤ", "name_kana": "わかやまおき４０ｋｍＤ", "lat": 33.08333333, "lng": 135.7166667 },
  "53085": { "code": "53085", "name": "和歌山沖４０ｋｍＥ", "name_kana": "わかやまおき４０ｋｍＥ", "lat": 33.13333333, "lng": 135.5166667 },
  "53086": { "code": "53086", "name": "和歌山沖４０ｋｍＦ", "name_kana": "わかやまおき４０ｋｍＦ", "lat": 33.18333333, "lng": 135.3333333 },
  "53087": { "code": "53087", "name": "和歌山沖４０ｋｍＧ", "name_kana": "わかやまおき４０ｋｍＧ", "lat": 33.31666667, "lng": 135.0666667 },
  "53088": { "code": "53088", "name": "和歌山沖３０ｋｍＣ", "name_kana": "わかやまおき３０ｋｍＣ", "lat": 33.16666667, "lng": 135.75 },
  "53089": { "code": "53089", "name": "和歌山沖３０ｋｍＤ", "name_kana": "わかやまおき３０ｋｍＤ", "lat": 33.23333333, "lng": 135.4666667 },
  "53090": { "code": "53090", "name": "和歌山白浜沖", "name_kana": "わかやましらはまおき", "lat": 33.65, "lng": 135.15 },
  "54001": { "code": "54001", "name": "境港市境", "name_kana": "さかいみなとしさかい", "lat": 35.55, "lng": 133.25 },
  "54030": { "code": "54030", "name": "岩美町田後", "name_kana": "いわみちょうたじり", "lat": 35.6, "lng": 134.3166667 },
  "55001": { "code": "55001", "name": "浜田", "name_kana": "はまだ", "lat": 34.9, "lng": 132.0666667 },
  "55101": { "code": "55101", "name": "隠岐西郷", "name_kana": "おきさいごう", "lat": 36.2, "lng": 133.3333333 },
  "56001": { "code": "56001", "name": "玉野市宇野", "name_kana": "たまのしうの", "lat": 34.48333333, "lng": 133.95 },
  "57001": { "code": "57001", "name": "広島", "name_kana": "ひろしま", "lat": 34.35, "lng": 132.4666667 },
  "57002": { "code": "57002", "name": "呉", "name_kana": "くれ", "lat": 34.23333333, "lng": 132.55 },
  "58001": { "code": "58001", "name": "小松島", "name_kana": "こまつしま", "lat": 34.01666667, "lng": 134.5833333 },
  "58002": { "code": "58002", "name": "徳島由岐", "name_kana": "とくしまゆき", "lat": 33.76666667, "lng": 134.6 },
  "58070": { "code": "58070", "name": "徳島沖５０ｋｍＡ", "name_kana": "とくしまおき５０ｋｍＡ", "lat": 33.33333333, "lng": 134.8666667 },
  "58071": { "code": "58071", "name": "徳島沖５０ｋｍＢ", "name_kana": "とくしまおき５０ｋｍＢ", "lat": 33.25, "lng": 134.7666667 },
  "58080": { "code": "58080", "name": "徳島沖４０ｋｍＡ", "name_kana": "とくしまおき４０ｋｍＡ", "lat": 33.41666667, "lng": 134.75 },
  "58081": { "code": "58081", "name": "徳島沖４０ｋｍＢ", "name_kana": "とくしまおき４０ｋｍＢ", "lat": 33.31666667, "lng": 134.6666667 },
  "58090": { "code": "58090", "name": "徳島海陽沖", "name_kana": "とくしまかいようおき", "lat": 33.46666667, "lng": 134.4833333 },
  "59001": { "code": "59001", "name": "高松", "name_kana": "たかまつ", "lat": 34.35, "lng": 134.05 },
  "59020": { "code": "59020", "name": "坂出市与島港", "name_kana": "さかいでしよしまこう", "lat": 34.38333333, "lng": 133.8166667 },
  "59022": { "code": "59022", "name": "多度津港", "name_kana": "たどつこう", "lat": 34.28333333, "lng": 133.75 },
  "60001": { "code": "60001", "name": "宇和島", "name_kana": "うわじま", "lat": 33.23333333, "lng": 132.55 },
  "60101": { "code": "60101", "name": "松山", "name_kana": "まつやま", "lat": 33.86666667, "lng": 132.7166667 },
  "60121": { "code": "60121", "name": "今治市馬島", "name_kana": "いまばりしうましま", "lat": 34.11666667, "lng": 132.9833333 },
  "61001": { "code": "61001", "name": "室戸市室戸岬", "name_kana": "むろとしむろとみさき", "lat": 33.26666667, "lng": 134.1666667 },
  "61002": { "code": "61002", "name": "高知", "name_kana": "こうち", "lat": 33.5, "lng": 133.5666667 },
  "61003": { "code": "61003", "name": "土佐清水", "name_kana": "とさしみず", "lat": 32.78333333, "lng": 132.9666667 },
  "61020": { "code": "61020", "name": "須崎港", "name_kana": "すさきこう", "lat": 33.38333333, "lng": 133.3 },
  "61030": { "code": "61030", "name": "中土佐町久礼港", "name_kana": "なかとさちょうくれこう", "lat": 33.33333333, "lng": 133.25 },
  "61051": { "code": "61051", "name": "高知沖９０ｋｍＡ", "name_kana": "こうちおき９０ｋｍＡ", "lat": 32.4154, "lng": 134.3346 },
  "61052": { "code": "61052", "name": "高知沖９０ｋｍＢ", "name_kana": "こうちおき９０ｋｍＢ", "lat": 31.9429, "lng": 132.5561 },
  "61061": { "code": "61061", "name": "高知沖８０ｋｍＡ", "name_kana": "こうちおき８０ｋｍＡ", "lat": 32.63333333, "lng": 134.5166667 },
  "61062": { "code": "61062", "name": "高知沖７０ｋｍＢ", "name_kana": "こうちおき７０ｋｍＢ", "lat": 32.71666667, "lng": 134.6 },
  "61063": { "code": "61063", "name": "高知沖７０ｋｍＣ", "name_kana": "こうちおき７０ｋｍＣ", "lat": 32.68333333, "lng": 134.4333333 },
  "61064": { "code": "61064", "name": "高知沖８０ｋｍＢ", "name_kana": "こうちおき８０ｋｍＢ", "lat": 31.9701, "lng": 133.0367 },
  "61070": { "code": "61070", "name": "高知沖６０ｋｍＡ", "name_kana": "こうちおき６０ｋｍＡ", "lat": 32.76666667, "lng": 134.5166667 },
  "61071": { "code": "61071", "name": "高知沖６０ｋｍＢ", "name_kana": "こうちおき６０ｋｍＢ", "lat": 32.7687, "lng": 134.2661 },
  "61072": { "code": "61072", "name": "高知沖６０ｋｍＣ", "name_kana": "こうちおき６０ｋｍＣ", "lat": 32.1818, "lng": 132.7916 },
  "61090": { "code": "61090", "name": "高知足摺岬沖", "name_kana": "こうちあしずりみさきおき", "lat": 32.63333333, "lng": 133.15 },
  "61091": { "code": "61091", "name": "高知室戸岬沖", "name_kana": "こうちむろとみさきおき", "lat": 33.08333333, "lng": 134.1833333 },
  "70021": { "code": "70021", "name": "下関市南風泊港", "name_kana": "しものせきしはえどまりこう", "lat": 33.95, "lng": 130.8833333 },
  "70101": { "code": "70101", "name": "下関市彦島弟子待", "name_kana": "しものせきしひこしまでしまつ", "lat": 33.93333333, "lng": 130.9333333 },
  "70102": { "code": "70102", "name": "徳山", "name_kana": "とくやま", "lat": 34.03333333, "lng": 131.8 },
  "70120": { "code": "70120", "name": "宇部港", "name_kana": "うべこう", "lat": 33.93333333, "lng": 131.25 },
  "70121": { "code": "70121", "name": "三田尻中関港", "name_kana": "みたじりなかのせきこう", "lat": 34.03333333, "lng": 131.5833333 },
  "70122": { "code": "70122", "name": "下関港長府", "name_kana": "しものせきこうちょうふ", "lat": 34.01666667, "lng": 131 },
  "71002": { "code": "71002", "name": "北九州市門司", "name_kana": "きたきゅうしゅうしもじ", "lat": 33.95, "lng": 130.95 },
  "71021": { "code": "71021", "name": "苅田港", "name_kana": "かんだこう", "lat": 33.78333333, "lng": 130.9833333 },
  "71022": { "code": "71022", "name": "北九州港青浜", "name_kana": "きたきゅうしゅうこうあおはま", "lat": 33.95, "lng": 131.0166667 },
  "71101": { "code": "71101", "name": "福岡市博多", "name_kana": "ふくおかしはかた", "lat": 33.61666667, "lng": 130.4 },
  "71120": { "code": "71120", "name": "北九州港日明", "name_kana": "きたきゅうしゅうこうひあがり", "lat": 33.91666667, "lng": 130.8833333 },
  "71201": { "code": "71201", "name": "大牟田市三池", "name_kana": "おおむたしみいけ", "lat": 33.01666667, "lng": 130.4166667 },
  "71202": { "code": "71202", "name": "太良町大浦野崎", "name_kana": "たらちょうおおうらのざき", "lat": 32.98333333, "lng": 130.2166667 },
  "71203": { "code": "71203", "name": "三角", "name_kana": "みすみ", "lat": 32.61666667, "lng": 130.45 },
  "71220": { "code": "71220", "name": "八代港", "name_kana": "やつしろこう", "lat": 32.51666667, "lng": 130.5666667 },
  "71221": { "code": "71221", "name": "天草市本渡港", "name_kana": "あまくさしほんどこう", "lat": 32.43333333, "lng": 130.2166667 },
  "71222": { "code": "71222", "name": "熊本港", "name_kana": "くまもとこう", "lat": 32.75, "lng": 130.5666667 },
  "72020": { "code": "72020", "name": "唐津港", "name_kana": "からつこう", "lat": 33.46666667, "lng": 129.9666667 },
  "72030": { "code": "72030", "name": "玄海町仮屋", "name_kana": "げんかいちょうかりや", "lat": 33.46666667, "lng": 129.85 },
  "73001": { "code": "73001", "name": "長崎", "name_kana": "ながさき", "lat": 32.73333333, "lng": 129.8666667 },
  "73002": { "code": "73002", "name": "口之津", "name_kana": "くちのつ", "lat": 32.6, "lng": 130.2 },
  "73003": { "code": "73003", "name": "福江島福江港", "name_kana": "ふくえじまふくえこう", "lat": 32.7, "lng": 128.85 },
  "73004": { "code": "73004", "name": "佐世保", "name_kana": "させぼ", "lat": 33.15, "lng": 129.7166667 },
  "73020": { "code": "73020", "name": "長崎港皇后", "name_kana": "ながさきこうこうごう", "lat": 32.71666667, "lng": 129.8333333 },
  "73021": { "code": "73021", "name": "平戸市田平港", "name_kana": "ひらどしたびらこう", "lat": 33.36666667, "lng": 129.5833333 },
  "73102": { "code": "73102", "name": "対馬比田勝", "name_kana": "つしまひたかつ", "lat": 34.65, "lng": 129.4833333 },
  "73110": { "code": "73110", "name": "対馬市厳原", "name_kana": "つしましいづはら", "lat": 34.2, "lng": 129.3 },
  "73120": { "code": "73120", "name": "壱岐島郷ノ浦港", "name_kana": "いきのしまごうのうらこう", "lat": 33.75, "lng": 129.6833333 },
  "74000": { "code": "74000", "name": "苓北町都呂々", "name_kana": "れいほくまちとろろ", "lat": 32.46666667, "lng": 130.0333333 },
  "75001": { "code": "75001", "name": "大分", "name_kana": "おおいた", "lat": 33.26666667, "lng": 131.6833333 },
  "75020": { "code": "75020", "name": "別府港", "name_kana": "べっぷこう", "lat": 33.3, "lng": 131.5 },
  "75100": { "code": "75100", "name": "佐伯市松浦", "name_kana": "さいきしまつうら", "lat": 32.95, "lng": 131.9666667 },
  "76001": { "code": "76001", "name": "日向市細島", "name_kana": "ひゆうがしほそしま", "lat": 32.45, "lng": 131.6666667 },
  "76002": { "code": "76002", "name": "日南市油津", "name_kana": "にちなんしあぶらつ", "lat": 31.58333333, "lng": 131.4166667 },
  "76020": { "code": "76020", "name": "宮崎港", "name_kana": "みやざきこう", "lat": 31.9, "lng": 131.45 },
  "76050": { "code": "76050", "name": "宮崎沖９０ｋｍＡ", "name_kana": "みやざきおき９０ｋｍＡ", "lat": 31.5881, "lng": 132.4506 },
  "76051": { "code": "76051", "name": "宮崎沖９０ｋｍＢ", "name_kana": "みやざきおき９０ｋｍＢ", "lat": 31.7484, "lng": 132.4602 },
  "76070": { "code": "76070", "name": "宮崎沖６０ｋｍＡ", "name_kana": "みやざきおき６０ｋｍＡ", "lat": 31.1019, "lng": 131.913 },
  "76071": { "code": "76071", "name": "宮崎沖６０ｋｍＢ", "name_kana": "みやざきおき６０ｋｍＢ", "lat": 31.3942, "lng": 132.0465 },
  "76080": { "code": "76080", "name": "宮崎沖４０ｋｍＡ", "name_kana": "みやざきおき４０ｋｍＡ", "lat": 31.3256, "lng": 131.7281 },
  "76090": { "code": "76090", "name": "宮崎日向沖", "name_kana": "みやざきひゅうがおき", "lat": 32.38333333, "lng": 131.9166667 },
  "77002": { "code": "77002", "name": "南大隅町大泊", "name_kana": "みなみおおすみちょうおおどまり", "lat": 31.01666667, "lng": 130.6833333 },
  "77020": { "code": "77020", "name": "志布志港", "name_kana": "しぶしこう", "lat": 31.48333333, "lng": 131.1166667 },
  "77102": { "code": "77102", "name": "種子島西之表", "name_kana": "たねがしまにしのおもて", "lat": 30.73333333, "lng": 131 },
  "77103": { "code": "77103", "name": "種子島熊野", "name_kana": "たねがしまくまの", "lat": 30.46666667, "lng": 130.9666667 },
  "77203": { "code": "77203", "name": "中之島", "name_kana": "なかのしま", "lat": 29.85, "lng": 129.85 },
  "77204": { "code": "77204", "name": "奄美市小湊", "name_kana": "あまみしこみなと", "lat": 28.31666667, "lng": 129.5333333 },
  "77205": { "code": "77205", "name": "奄美市名瀬", "name_kana": "あまみしなぜ", "lat": 28.4, "lng": 129.5 },
  "77302": { "code": "77302", "name": "枕崎", "name_kana": "まくらざき", "lat": 31.26666667, "lng": 130.3 },
  "77303": { "code": "77303", "name": "鹿児島", "name_kana": "かごしま", "lat": 31.6, "lng": 130.5666667 },
  "77330": { "code": "77330", "name": "阿久根", "name_kana": "あくね", "lat": 32.01666667, "lng": 130.1833333 },
  "80001": { "code": "80001", "name": "那覇", "name_kana": "なは", "lat": 26.21666667, "lng": 127.6666667 },
  "80002": { "code": "80002", "name": "久米島", "name_kana": "くめじま", "lat": 26.33333333, "lng": 126.75 },
  "80003": { "code": "80003", "name": "沖縄市中城湾港", "name_kana": "おきなわしなかぐすくわんこう", "lat": 26.33333333, "lng": 127.8333333 },
  "80030": { "code": "80030", "name": "南城市安座真", "name_kana": "なんじょうしあざま", "lat": 26.18333333, "lng": 127.8166667 },
  "80102": { "code": "80102", "name": "南大東漁港", "name_kana": "みなみだいとうぎょこう", "lat": 25.86666667, "lng": 131.2333333 },
  "80203": { "code": "80203", "name": "西表島", "name_kana": "いりおもてじま", "lat": 24.35, "lng": 123.75 },
  "80204": { "code": "80204", "name": "与那国島久部良", "name_kana": "よなぐにじまくぶら", "lat": 24.45, "lng": 122.95 },
  "80205": { "code": "80205", "name": "石垣島石垣港", "name_kana": "いしがきじまいしがきこう", "lat": 24.33333333, "lng": 124.1666667 },
  "80206": { "code": "80206", "name": "宮古島平良", "name_kana": "みやこじまひらら", "lat": 24.81666667, "lng": 125.2833333 },
  "91010": { "code": "91010", "name": "釧路沖１１０ｋｍＡ", "name_kana": "くしろおき１１０ｋｍＡ", "lat": 42.06666667, "lng": 145.4333333 },
  "91011": { "code": "91011", "name": "十勝沖１１０ｋｍＡ", "name_kana": "とかちおき１１０ｋｍＡ", "lat": 41.9, "lng": 144.7 },
  "91012": { "code": "91012", "name": "十勝沖１２０ｋｍＡ", "name_kana": "とかちおき１２０ｋｍＡ", "lat": 41.65, "lng": 144.6666667 },
  "91020": { "code": "91020", "name": "釧路沖１３０ｋｍＡ", "name_kana": "くしろおき１３０ｋｍＡ", "lat": 41.88333333, "lng": 145.65 },
  "91021": { "code": "91021", "name": "釧路沖１３０ｋｍＢ", "name_kana": "くしろおき１３０ｋｍＢ", "lat": 42.1, "lng": 146.2333333 },
  "91030": { "code": "91030", "name": "釧路沖１５０ｋｍＡ", "name_kana": "くしろおき１５０ｋｍＡ", "lat": 41.66666667, "lng": 145.5333333 },
  "91031": { "code": "91031", "name": "十勝沖１５０ｋｍＡ", "name_kana": "とかちおき１５０ｋｍＡ", "lat": 41.51666667, "lng": 144.9 },
  "91032": { "code": "91032", "name": "釧路沖１６０ｋｍＡ", "name_kana": "くしろおき１６０ｋｍＡ", "lat": 41.53333333, "lng": 145.25 },
  "91033": { "code": "91033", "name": "釧路沖１７０ｋｍＡ", "name_kana": "くしろおき１７０ｋｍＡ", "lat": 41.66666667, "lng": 146.1666667 },
  "91040": { "code": "91040", "name": "釧路沖１８０ｋｍＡ", "name_kana": "くしろおき１８０ｋｍＡ", "lat": 41.36666667, "lng": 145.6 },
  "92010": { "code": "92010", "name": "青森東方沖１２０ｋｍＡ", "name_kana": "あおもりとうほうおき１２０ｋｍＡ", "lat": 40.45, "lng": 143.2 },
  "92030": { "code": "92030", "name": "青森東方沖１６０ｋｍＡ", "name_kana": "あおもりとうほうおき１６０ｋｍＡ", "lat": 40.96666667, "lng": 143.45 },
  "92040": { "code": "92040", "name": "青森東方沖１８０ｋｍＡ", "name_kana": "あおもりとうほうおき１８０ｋｍＡ", "lat": 40.88333333, "lng": 143.7666667 },
  "92041": { "code": "92041", "name": "青森東方沖２００ｋｍＡ", "name_kana": "あおもりとうほうおき２００ｋｍＡ", "lat": 40.78333333, "lng": 144.0833333 },
  "92042": { "code": "92042", "name": "青森東方沖２００ｋｍＢ", "name_kana": "あおもりとうほうおき２００ｋｍＢ", "lat": 40.55, "lng": 144.1333333 },
  "92060": { "code": "92060", "name": "青森東方沖２６０ｋｍＡ", "name_kana": "あおもりとうほうおき２６０ｋｍＡ", "lat": 40.53333333, "lng": 144.9333333 },
  "92070": { "code": "92070", "name": "青森東方沖３１０ｋｍＡ", "name_kana": "あおもりとうほうおき３１０ｋｍＡ", "lat": 40.9, "lng": 145.4 },
  "92110": { "code": "92110", "name": "岩手沖１１０ｋｍＡ", "name_kana": "いわておき１１０ｋｍＡ", "lat": 39.7, "lng": 143.3666667 },
  "92111": { "code": "92111", "name": "岩手沖１２０ｋｍＡ", "name_kana": "いわておき１２０ｋｍＡ", "lat": 40.06666667, "lng": 143.3166667 },
  "92112": { "code": "92112", "name": "岩手沖１２０ｋｍＢ", "name_kana": "いわておき１２０ｋｍＢ", "lat": 39.3, "lng": 143.45 },
  "92120": { "code": "92120", "name": "岩手沖１４０ｋｍＡ", "name_kana": "いわておき１４０ｋｍＡ", "lat": 40.43333333, "lng": 143.55 },
  "92121": { "code": "92121", "name": "岩手沖１４０ｋｍＢ", "name_kana": "いわておき１４０ｋｍＢ", "lat": 40.08333333, "lng": 143.65 },
  "92122": { "code": "92122", "name": "岩手沖１４０ｋｍＣ", "name_kana": "いわておき１４０ｋｍＣ", "lat": 39.63333333, "lng": 143.7166667 },
  "92130": { "code": "92130", "name": "岩手沖１５０ｋｍＡ", "name_kana": "いわておき１５０ｋｍＡ", "lat": 39.18333333, "lng": 143.75 },
  "92131": { "code": "92131", "name": "岩手沖１６０ｋｍＡ", "name_kana": "いわておき１６０ｋｍＡ", "lat": 39.76666667, "lng": 143.9333333 },
  "92132": { "code": "92132", "name": "岩手沖１７０ｋｍＡ", "name_kana": "いわておき１７０ｋｍＡ", "lat": 40.43333333, "lng": 143.8833333 },
  "92133": { "code": "92133", "name": "岩手沖１７０ｋｍＢ", "name_kana": "いわておき１７０ｋｍＢ", "lat": 40.03333333, "lng": 143.95 },
  "92134": { "code": "92134", "name": "岩手沖１７０ｋｍＣ", "name_kana": "いわておき１７０ｋｍＣ", "lat": 39.05, "lng": 143.9333333 },
  "92150": { "code": "92150", "name": "岩手沖２２０ｋｍＡ", "name_kana": "いわておき２２０ｋｍＡ", "lat": 39, "lng": 144.5833333 },
  "92151": { "code": "92151", "name": "岩手沖２３０ｋｍＡ", "name_kana": "いわておき２３０ｋｍＡ", "lat": 39.51666667, "lng": 144.7166667 },
  "92152": { "code": "92152", "name": "岩手沖２４０ｋｍＡ", "name_kana": "いわておき２４０ｋｍＡ", "lat": 40.03333333, "lng": 144.8166667 },
  "92210": { "code": "92210", "name": "宮城沖１１０ｋｍＡ", "name_kana": "みやぎおき１１０ｋｍＡ", "lat": 38.76666667, "lng": 143.15 },
  "92211": { "code": "92211", "name": "宮城沖１１０ｋｍＢ", "name_kana": "みやぎおき１１０ｋｍＢ", "lat": 38.45, "lng": 142.8333333 },
  "92212": { "code": "92212", "name": "宮城沖１２０ｋｍＡ", "name_kana": "みやぎおき１２０ｋｍＡ", "lat": 37.98333333, "lng": 142.9 },
  "92220": { "code": "92220", "name": "宮城沖１３０ｋｍＡ", "name_kana": "みやぎおき１３０ｋｍＡ", "lat": 38.43333333, "lng": 143.1666667 },
  "92221": { "code": "92221", "name": "宮城沖１４０ｋｍＡ", "name_kana": "みやぎおき１４０ｋｍＡ", "lat": 38.78333333, "lng": 143.4833333 },
  "92230": { "code": "92230", "name": "宮城沖１５０ｋｍＡ", "name_kana": "みやぎおき１５０ｋｍＡ", "lat": 37.96666667, "lng": 143.25 },
  "92231": { "code": "92231", "name": "宮城沖１６０ｋｍＡ", "name_kana": "みやぎおき１６０ｋｍＡ", "lat": 38.83333333, "lng": 143.7833333 },
  "92232": { "code": "92232", "name": "宮城沖１６０ｋｍＢ", "name_kana": "みやぎおき１６０ｋｍＢ", "lat": 38.4, "lng": 143.5166667 },
  "92240": { "code": "92240", "name": "宮城沖１８０ｋｍＡ", "name_kana": "みやぎおき１８０ｋｍＡ", "lat": 38.3, "lng": 143.7833333 },
  "92241": { "code": "92241", "name": "宮城沖１８０ｋｍＢ", "name_kana": "みやぎおき１８０ｋｍＢ", "lat": 37.93333333, "lng": 143.5666667 },
  "92242": { "code": "92242", "name": "宮城沖１９０ｋｍＡ", "name_kana": "みやぎおき１９０ｋｍＡ", "lat": 38.06666667, "lng": 143.75 },
  "92250": { "code": "92250", "name": "宮城沖２３０ｋｍＡ", "name_kana": "みやぎおき２３０ｋｍＡ", "lat": 38.5, "lng": 144.45 },
  "92251": { "code": "92251", "name": "宮城沖２４０ｋｍＡ", "name_kana": "みやぎおき２４０ｋｍＡ", "lat": 37.98333333, "lng": 144.3333333 },
  "92500": { "code": "92500", "name": "福島沖１００ｋｍＡ", "name_kana": "ふくしまおき１００ｋｍＡ", "lat": 37.2, "lng": 142.2 },
  "92510": { "code": "92510", "name": "福島沖１２０ｋｍＡ", "name_kana": "ふくしまおき１２０ｋｍＡ", "lat": 37.6, "lng": 142.6166667 },
  "92520": { "code": "92520", "name": "福島沖１３０ｋｍＡ", "name_kana": "ふくしまおき１３０ｋｍＡ", "lat": 37.1, "lng": 142.5 },
  "92521": { "code": "92521", "name": "福島沖１４０ｋｍＡ", "name_kana": "ふくしまおき１４０ｋｍＡ", "lat": 37.53333333, "lng": 142.9333333 },
  "92530": { "code": "92530", "name": "福島沖１６０ｋｍＡ", "name_kana": "ふくしまおき１６０ｋｍＡ", "lat": 37.06666667, "lng": 142.8166667 },
  "92531": { "code": "92531", "name": "福島沖１７０ｋｍＡ", "name_kana": "ふくしまおき１７０ｋｍＡ", "lat": 37.43333333, "lng": 143.2333333 },
  "92540": { "code": "92540", "name": "福島沖１８０ｋｍＡ", "name_kana": "ふくしまおき１８０ｋｍＡ", "lat": 37.21666667, "lng": 143.0666667 },
  "92550": { "code": "92550", "name": "福島沖２４０ｋｍＡ", "name_kana": "ふくしまおき２４０ｋｍＡ", "lat": 37.48333333, "lng": 144.1833333 },
  "92551": { "code": "92551", "name": "福島沖２５０ｋｍＡ", "name_kana": "ふくしまおき２５０ｋｍＡ", "lat": 37.01666667, "lng": 143.95 },
  "93010": { "code": "93010", "name": "茨城沖１１０ｋｍＡ", "name_kana": "いばらきおき１１０ｋｍＡ", "lat": 36.68333333, "lng": 142.15 },
  "93011": { "code": "93011", "name": "茨城沖１２０ｋｍＡ", "name_kana": "いばらきおき１２０ｋｍＡ", "lat": 35.96666667, "lng": 142.1166667 },
  "93020": { "code": "93020", "name": "茨城沖１４０ｋｍＡ", "name_kana": "いばらきおき１４０ｋｍＡ", "lat": 36.6, "lng": 142.4333333 },
  "93021": { "code": "93021", "name": "茨城沖１４０ｋｍＢ", "name_kana": "いばらきおき１４０ｋｍＢ", "lat": 35.95, "lng": 142.4 },
  "93030": { "code": "93030", "name": "茨城沖１６０ｋｍＡ", "name_kana": "いばらきおき１６０ｋｍＡ", "lat": 36.38333333, "lng": 142.6166667 },
  "93031": { "code": "93031", "name": "茨城沖１６０ｋｍＢ", "name_kana": "いばらきおき１６０ｋｍＢ", "lat": 36.15, "lng": 142.55 },
  "93050": { "code": "93050", "name": "茨城沖２２０ｋｍＡ", "name_kana": "いばらきおき２２０ｋｍＡ", "lat": 36.13333333, "lng": 143.2833333 },
  "93051": { "code": "93051", "name": "茨城沖２４０ｋｍＡ", "name_kana": "いばらきおき２４０ｋｍＡ", "lat": 36.56666667, "lng": 143.6 },
  "93100": { "code": "93100", "name": "千葉東方沖１００ｋｍＡ", "name_kana": "ちばとうほうおき１００ｋｍＡ", "lat": 35.23333333, "lng": 141.8666667 },
  "93110": { "code": "93110", "name": "千葉東方沖１１０ｋｍＡ", "name_kana": "ちばとうほうおき１１０ｋｍＡ", "lat": 35.4, "lng": 142.05 },
  "93111": { "code": "93111", "name": "千葉南東沖１１０ｋｍＡ", "name_kana": "ちばなんとうおき１１０ｋｍＡ", "lat": 34.23333333, "lng": 140.7333333 },
  "93112": { "code": "93112", "name": "千葉南東沖１２０ｋｍＡ", "name_kana": "ちばなんとうおき１２０ｋｍＡ", "lat": 34.53333333, "lng": 141.35 },
  "93113": { "code": "93113", "name": "千葉南東沖１２０ｋｍＢ", "name_kana": "ちばなんとうおき１２０ｋｍＢ", "lat": 34.26666667, "lng": 141.0333333 },
  "93114": { "code": "93114", "name": "千葉南東沖１２０ｋｍＣ", "name_kana": "ちばなんとうおき１２０ｋｍＣ", "lat": 33.95, "lng": 140.5166667 },
  "93120": { "code": "93120", "name": "千葉南東沖１４０ｋｍＡ", "name_kana": "ちばなんとうおき１４０ｋｍＡ", "lat": 34.36666667, "lng": 141.5333333 },
  "93121": { "code": "93121", "name": "千葉南東沖１４０ｋｍＢ", "name_kana": "ちばなんとうおき１４０ｋｍＢ", "lat": 34.2, "lng": 141.3333333 },
  "93130": { "code": "93130", "name": "千葉南東沖１６０ｋｍＡ", "name_kana": "ちばなんとうおき１６０ｋｍＡ", "lat": 33.86666667, "lng": 141.1333333 },
  "93131": { "code": "93131", "name": "千葉東方沖１７０ｋｍＡ", "name_kana": "ちばとうほうおき１７０ｋｍＡ", "lat": 35.21666667, "lng": 142.6833333 },
  "93140": { "code": "93140", "name": "千葉南東沖１８０ｋｍＡ", "name_kana": "ちばなんとうおき１８０ｋｍＡ", "lat": 33.96666667, "lng": 141.7333333 },
  "93141": { "code": "93141", "name": "千葉東方沖１８０ｋｍＡ", "name_kana": "ちばとうほうおき１８０ｋｍＡ", "lat": 34.71666667, "lng": 142.5166667 },
  "93142": { "code": "93142", "name": "千葉東方沖１９０ｋｍＡ", "name_kana": "ちばとうほうおき１９０ｋｍＡ", "lat": 35.66666667, "lng": 142.9666667 },
  "93143": { "code": "93143", "name": "千葉東方沖２００ｋｍＡ", "name_kana": "ちばとうほうおき２００ｋｍＡ", "lat": 34.26666667, "lng": 142.2333333 },
  "95300": { "code": "95300", "name": "和歌山沖１００ｋｍＡ", "name_kana": "わかやまおき１００ｋｍＡ", "lat": 33.13333333, "lng": 136.8166667 },
  "95301": { "code": "95301", "name": "和歌山沖１００ｋｍＢ", "name_kana": "わかやまおき１００ｋｍＢ", "lat": 33.06666667, "lng": 136.8333333 },
  "95302": { "code": "95302", "name": "和歌山沖１００ｋｍＣ", "name_kana": "わかやまおき１００ｋｍＣ", "lat": 33, "lng": 136.7833333 },
  "95303": { "code": "95303", "name": "和歌山沖１００ｋｍＤ", "name_kana": "わかやまおき１００ｋｍＤ", "lat": 32.95, "lng": 136.7333333 },
  "95310": { "code": "95310", "name": "和歌山沖１１０ｋｍＡ", "name_kana": "わかやまおき１１０ｋｍＡ", "lat": 33.05, "lng": 136.9333333 },
  "96110": { "code": "96110", "name": "高知沖１１０ｋｍＡ", "name_kana": "こうちおき１１０ｋｍＡ", "lat": 31.7433, "lng": 132.8114 },
  "96111": { "code": "96111", "name": "高知沖１２０ｋｍＡ", "name_kana": "こうちおき１２０ｋｍＡ", "lat": 32.1712, "lng": 134.274 },
  "96112": { "code": "96112", "name": "高知沖１２０ｋｍＢ", "name_kana": "こうちおき１２０ｋｍＢ", "lat": 32.0348, "lng": 133.9599 },
  "96113": { "code": "96113", "name": "高知沖１２０ｋｍＣ", "name_kana": "こうちおき１２０ｋｍＣ", "lat": 31.7849, "lng": 133.6553 },
  "96120": { "code": "96120", "name": "高知沖１３０ｋｍＡ", "name_kana": "こうちおき１３０ｋｍＡ", "lat": 31.5924, "lng": 133.3376 },
  "96121": { "code": "96121", "name": "高知沖１４０ｋｍＡ", "name_kana": "こうちおき１４０ｋｍＡ", "lat": 31.5061, "lng": 133.1083 },
  "97600": { "code": "97600", "name": "宮崎沖１００ｋｍＡ", "name_kana": "みやざきおき１００ｋｍＡ", "lat": 31.1387, "lng": 132.324 },
  "97620": { "code": "97620", "name": "宮崎沖１３０ｋｍＡ", "name_kana": "みやざきおき１３０ｋｍＡ", "lat": 31.288, "lng": 132.7613 }
}
